{
    "links": {
        "self": "http://www.neowsapp.com/rest/v1/neo/3989409?api_key=iIulBulltgU6a56xZRHN4H3l9WmuAYTsLGpBGhQ2"
    },
    "id": "3989409",
    "neo_reference_id": "3989409",
    "name": "(2020 CO)",
    "designation": "2020 CO",
    "nasa_jpl_url": "http://ssd.jpl.nasa.gov/sbdb.cgi?sstr=3989409",
    "absolute_magnitude_h": 26.058,
    "estimated_diameter": {
        "kilometers": {
            "estimated_diameter_min": 0.0163288266,
            "estimated_diameter_max": 0.0365123662
        },
        "meters": {
            "estimated_diameter_min": 16.3288265786,
            "estimated_diameter_max": 36.5123662225
        },
        "miles": {
            "estimated_diameter_min": 0.0101462593,
            "estimated_diameter_max": 0.0226877255
        },
        "feet": {
            "estimated_diameter_min": 53.572267392,
            "estimated_diameter_max": 119.7912315974
        }
    },
    "is_potentially_hazardous_asteroid": false,
    "close_approach_data": [
        {
            "close_approach_date": "2020-02-04",
            "close_approach_date_full": "2020-Feb-04 18:05",
            "epoch_date_close_approach": 1580839500000,
            "relative_velocity": {
                "kilometers_per_second": "17.4894572031",
                "kilometers_per_hour": "62962.045931102",
                "miles_per_hour": "39122.1668175784"
            },
            "miss_distance": {
                "astronomical": "0.0293356437",
                "lunar": "11.4115653993",
                "kilometers": "4388549.812598919",
                "miles": "2726918.4046623222"
            },
            "orbiting_body": "Earth"
        }
    ],
    "orbital_data": {
        "orbit_id": "3",
        "orbit_determination_date": "2020-02-20 04:53:18",
        "first_observation_date": "2020-02-02",
        "last_observation_date": "2020-02-03",
        "data_arc_in_days": 1,
        "observations_used": 23,
        "orbit_uncertainty": "8",
        "minimum_orbit_intersection": ".029058",
        "jupiter_tisserand_invariant": "4.032",
        "epoch_osculation": "2458882.5",
        "eccentricity": ".4539922051652673",
        "semi_major_axis": "1.662181116924123",
        "inclination": "26.48960480185986",
        "ascending_node_longitude": "313.1496807424693",
        "orbital_period": "782.7371438327766",
        "perihelion_distance": ".9075638462676734",
        "perihelion_argument": "229.5937172037735",
        "aphelion_distance": "2.416798387580573",
        "perihelion_time": "2458921.599794647752",
        "mean_anomaly": "342.0170459724627",
        "mean_motion": ".4599245134033273",
        "equinox": "J2000",
        "orbit_class": {
            "orbit_class_type": "APO",
            "orbit_class_description": "Near-Earth asteroid orbits which cross the Earth’s orbit similar to that of 1862 Apollo",
            "orbit_class_range": "a (semi-major axis) > 1.0 AU; q (perihelion) < 1.017 AU"
        }
    },
    "is_sentry_object": false
}